start=new Date('2022-10-14T00:00:00.000Z').valueOf();
sats=[{"TLE_LINE1":"1 53255U 22086P   22286.91667824 -.00001469  00000-0 -74198-4 0  9996","OBJECT_TYPE":"PAYLOAD","PERIOD":"95.438","MEAN_ANOMALY":"77.0086","TLE_LINE2":"2 53255  53.2174  13.1388 0001968  40.9544  77.0086 15.08837346  1305","INCLINATION":"53.2174","EPOCH":"2022-10-13T22:00:00.999936","BSTAR":"-0.00007419800000","OBJECT_NAME":"STARLINK-4142","MEAN_MOTION":"15.08837346","RCS_SIZE":"LARGE","REF_FRAME":"TEME","GP_ID":"215030231","ECCENTRICITY":"0.00019680","ELEMENT_SET_NO":"999","MEAN_MOTION_DOT":"-0.00001469","TIME_SYSTEM":"UTC","NORAD_CAT_ID":"53255","MEAN_ELEMENT_THEORY":"SGP4","RA_OF_ASC_NODE":"13.1388","LAUNCH_DATE":"2022-07-24","CENTER_NAME":"EARTH","APOAPSIS":"541.115","OBJECT_ID":"2022-086P","EPHEMERIS_TYPE":"0","FILE":"3609636","REV_AT_EPOCH":"130","PERIAPSIS":"538.392","SEMIMAJOR_AXIS":"6917.889","SITE":"AFETR","MEAN_MOTION_DDOT":"0.0000000000000","CLASSIFICATION_TYPE":"U","DECAY_DATE":null,"ARG_OF_PERICENTER":"40.9544","COUNTRY_CODE":"US"},{"APOAPSIS":"541.048","MEAN_ELEMENT_THEORY":"SGP4","MEAN_MOTION_DOT":"-0.00001673","NORAD_CAT_ID":"53256","TIME_SYSTEM":"UTC","LAUNCH_DATE":"2022-07-24","CENTER_NAME":"EARTH","RA_OF_ASC_NODE":"13.1388","DECAY_DATE":null,"CLASSIFICATION_TYPE":"U","MEAN_MOTION_DDOT":"0.0000000000000","COUNTRY_CODE":"US","ARG_OF_PERICENTER":"38.1414","FILE":"3609636","REV_AT_EPOCH":"130","OBJECT_ID":"2022-086Q","EPHEMERIS_TYPE":"0","SITE":"AFETR","SEMIMAJOR_AXIS":"6917.888","PERIAPSIS":"538.458","TLE_LINE2":"2 53256  53.2174  13.1388 0001872  38.1414  59.8216 15.08837404  1303","INCLINATION":"53.2174","PERIOD":"95.438","MEAN_ANOMALY":"59.8216","TLE_LINE1":"1 53256U 22086Q   22286.91667824 -.00001673  00000-0 -87024-4 0  9996","OBJECT_TYPE":"PAYLOAD","GP_ID":"215029811","REF_FRAME":"TEME","ECCENTRICITY":"0.00018720","ELEMENT_SET_NO":"999","BSTAR":"-0.00008702400000","OBJECT_NAME":"STARLINK-4147","EPOCH":"2022-10-13T22:00:00.999936","MEAN_MOTION":"15.08837404","RCS_SIZE":"LARGE"},{"EPOCH":"2022-10-13T22:00:00.999936","BSTAR":"-0.00009948000000","OBJECT_NAME":"STARLINK-4144","MEAN_MOTION":"15.08837616","RCS_SIZE":"LARGE","REF_FRAME":"TEME","GP_ID":"215030132","ECCENTRICITY":"0.00015890","ELEMENT_SET_NO":"999","TLE_LINE1":"1 53257U 22086R   22286.91667824 -.00001871  00000-0 -99480-4 0  9996","OBJECT_TYPE":"PAYLOAD","PERIOD":"95.438","MEAN_ANOMALY":"135.9217","TLE_LINE2":"2 53257  53.2174  13.1387 0001589  42.0413 135.9217 15.08837616  1303","INCLINATION":"53.2174","OBJECT_ID":"2022-086R","EPHEMERIS_TYPE":"0","FILE":"3609636","REV_AT_EPOCH":"130","SEMIMAJOR_AXIS":"6917.888","PERIAPSIS":"538.653","SITE":"AFETR","MEAN_MOTION_DDOT":"0.0000000000000","CLASSIFICATION_TYPE":"U","DECAY_DATE":null,"ARG_OF_PERICENTER":"42.0413","COUNTRY_CODE":"US","MEAN_MOTION_DOT":"-0.00001871","TIME_SYSTEM":"UTC","NORAD_CAT_ID":"53257","MEAN_ELEMENT_THEORY":"SGP4","RA_OF_ASC_NODE":"13.1387","LAUNCH_DATE":"2022-07-24","CENTER_NAME":"EARTH","APOAPSIS":"540.852"},{"PERIAPSIS":"538.365","SEMIMAJOR_AXIS":"6917.888","SITE":"AFETR","OBJECT_ID":"2022-086S","EPHEMERIS_TYPE":"0","REV_AT_EPOCH":"130","FILE":"3609636","ARG_OF_PERICENTER":"42.7991","COUNTRY_CODE":"US","MEAN_MOTION_DDOT":"0.0000000000000","DECAY_DATE":null,"CLASSIFICATION_TYPE":"U","RA_OF_ASC_NODE":"13.1388","LAUNCH_DATE":"2022-07-24","CENTER_NAME":"EARTH","TIME_SYSTEM":"UTC","NORAD_CAT_ID":"53258","MEAN_MOTION_DOT":"-0.00001413","MEAN_ELEMENT_THEORY":"SGP4","APOAPSIS":"541.142","RCS_SIZE":"LARGE","MEAN_MOTION":"15.08837351","EPOCH":"2022-10-13T22:00:00.999936","OBJECT_NAME":"STARLINK-4127","BSTAR":"-0.00007069900000","ELEMENT_SET_NO":"999","ECCENTRICITY":"0.00020070","REF_FRAME":"TEME","GP_ID":"215029644","TLE_LINE1":"1 53258U 22086S   22286.91667824 -.00001413  00000-0 -70699-4 0  9990","OBJECT_TYPE":"PAYLOAD","PERIOD":"95.438","MEAN_ANOMALY":"95.1639","TLE_LINE2":"2 53258  53.2174  13.1388 0002007  42.7991  95.1639 15.08837351  1300","INCLINATION":"53.2174"},{"SITE":"AFETR","PERIAPSIS":"538.652","SEMIMAJOR_AXIS":"6917.887","FILE":"3609636","REV_AT_EPOCH":"130","OBJECT_ID":"2022-086T","EPHEMERIS_TYPE":"0","COUNTRY_CODE":"US","ARG_OF_PERICENTER":"48.9887","DECAY_DATE":null,"CLASSIFICATION_TYPE":"U","MEAN_MOTION_DDOT":"0.0000000000000","CENTER_NAME":"EARTH","LAUNCH_DATE":"2022-07-24","RA_OF_ASC_NODE":"13.1387","MEAN_ELEMENT_THEORY":"SGP4","TIME_SYSTEM":"UTC","NORAD_CAT_ID":"53259","MEAN_MOTION_DOT":"-0.00002177","APOAPSIS":"540.853","RCS_SIZE":"LARGE","MEAN_MOTION":"15.08837761","OBJECT_NAME":"STARLINK-4140","BSTAR":"-0.00011874000000","EPOCH":"2022-10-13T22:00:00.999936","ECCENTRICITY":"0.00015910","ELEMENT_SET_NO":"999","GP_ID":"215029980","REF_FRAME":"TEME","TLE_LINE1":"1 53259U 22086T   22286.91667824 -.00002177  00000-0 -11874-3 0  9998","OBJECT_TYPE":"PAYLOAD","TLE_LINE2":"2 53259  53.2174  13.1387 0001591  48.9887 143.7742 15.08837761  1309","INCLINATION":"53.2174","MEAN_ANOMALY":"143.7742","PERIOD":"95.438"},{"RCS_SIZE":"LARGE","MEAN_MOTION":"15.08837473","OBJECT_NAME":"STARLINK-4136","BSTAR":"-0.00008248400000","EPOCH":"2022-10-13T22:00:00.999936","ELEMENT_SET_NO":"999","ECCENTRICITY":"0.00015340","GP_ID":"215029394","REF_FRAME":"TEME","TLE_LINE1":"1 53260U 22086U   22286.91667824 -.00001600  00000-0 -82484-4 0  9996","OBJECT_TYPE":"PAYLOAD","INCLINATION":"53.2174","TLE_LINE2":"2 53260  53.2174  13.1387 0001534  51.9073 106.0557 15.08837473  1305","PERIOD":"95.438","MEAN_ANOMALY":"106.0557","SITE":"AFETR","SEMIMAJOR_AXIS":"6917.888","PERIAPSIS":"538.692","REV_AT_EPOCH":"130","FILE":"3609636","EPHEMERIS_TYPE":"0","OBJECT_ID":"2022-086U","COUNTRY_CODE":"US","ARG_OF_PERICENTER":"51.9073","DECAY_DATE":null,"CLASSIFICATION_TYPE":"U","MEAN_MOTION_DDOT":"0.0000000000000","LAUNCH_DATE":"2022-07-24","CENTER_NAME":"EARTH","RA_OF_ASC_NODE":"13.1387","MEAN_ELEMENT_THEORY":"SGP4","TIME_SYSTEM":"UTC","NORAD_CAT_ID":"53260","MEAN_MOTION_DOT":"-0.00001600","APOAPSIS":"540.814"},{"GP_ID":"215030385","REF_FRAME":"TEME","ECCENTRICITY":"0.00016780","ELEMENT_SET_NO":"999","OBJECT_NAME":"STARLINK-4062","BSTAR":"-0.00018170000000","EPOCH":"2022-10-13T22:00:00.999936","RCS_SIZE":"LARGE","MEAN_MOTION":"15.08838179","TLE_LINE2":"2 53261  53.2174  13.1387 0001678  49.0515 188.9114 15.08838179  1306","INCLINATION":"53.2174","MEAN_ANOMALY":"188.9114","PERIOD":"95.438","OBJECT_TYPE":"PAYLOAD","TLE_LINE1":"1 53261U 22086V   22286.91667824 -.00003179  00000-0 -18170-3 0  9990","DECAY_DATE":null,"CLASSIFICATION_TYPE":"U","MEAN_MOTION_DDOT":"0.0000000000000","COUNTRY_CODE":"US","ARG_OF_PERICENTER":"49.0515","FILE":"3609636","REV_AT_EPOCH":"130","EPHEMERIS_TYPE":"0","OBJECT_ID":"2022-086V","SITE":"AFETR","PERIAPSIS":"538.590","SEMIMAJOR_AXIS":"6917.886","APOAPSIS":"540.912","MEAN_ELEMENT_THEORY":"SGP4","TIME_SYSTEM":"UTC","NORAD_CAT_ID":"53261","MEAN_MOTION_DOT":"-0.00003179","CENTER_NAME":"EARTH","LAUNCH_DATE":"2022-07-24","RA_OF_ASC_NODE":"13.1387"},{"MEAN_MOTION_DOT":"-0.00002299","NORAD_CAT_ID":"53262","TIME_SYSTEM":"UTC","MEAN_ELEMENT_THEORY":"SGP4","RA_OF_ASC_NODE":"13.1387","LAUNCH_DATE":"2022-07-24","CENTER_NAME":"EARTH","APOAPSIS":"540.786","OBJECT_ID":"2022-086W","EPHEMERIS_TYPE":"0","FILE":"3609636","REV_AT_EPOCH":"130","SEMIMAJOR_AXIS":"6917.887","PERIAPSIS":"538.718","SITE":"AFETR","MEAN_MOTION_DDOT":"0.0000000000000","CLASSIFICATION_TYPE":"U","DECAY_DATE":null,"ARG_OF_PERICENTER":"39.2751","COUNTRY_CODE":"US","OBJECT_TYPE":"PAYLOAD","TLE_LINE1":"1 53262U 22086W   22286.91667824 -.00002299  00000-0 -12639-3 0  9997","MEAN_ANOMALY":"158.6878","PERIOD":"95.438","TLE_LINE2":"2 53262  53.2174  13.1387 0001495  39.2751 158.6878 15.08837822  1302","INCLINATION":"53.2174","EPOCH":"2022-10-13T22:00:00.999936","BSTAR":"-0.00012639000000","OBJECT_NAME":"STARLINK-4085","MEAN_MOTION":"15.08837822","RCS_SIZE":"LARGE","REF_FRAME":"TEME","GP_ID":"215029227","ELEMENT_SET_NO":"999","ECCENTRICITY":"0.00014950"},{"CENTER_NAME":"EARTH","LAUNCH_DATE":"2022-07-24","RA_OF_ASC_NODE":"13.1388","MEAN_ELEMENT_THEORY":"SGP4","MEAN_MOTION_DOT":"-0.00003581","TIME_SYSTEM":"UTC","NORAD_CAT_ID":"53263","APOAPSIS":"540.966","SITE":"AFETR","SEMIMAJOR_AXIS":"6917.886","PERIAPSIS":"538.535","FILE":"3609636","REV_AT_EPOCH":"130","OBJECT_ID":"2022-086X","EPHEMERIS_TYPE":"0","COUNTRY_CODE":"US","ARG_OF_PERICENTER":"44.1454","CLASSIFICATION_TYPE":"U","DECAY_DATE":null,"MEAN_MOTION_DDOT":"0.0000000000000","OBJECT_TYPE":"PAYLOAD","TLE_LINE1":"1 53263U 22086X   22286.91667824 -.00003581  00000-0 -20703-3 0  9994","TLE_LINE2":"2 53263  53.2174  13.1388 0001757  44.1454 213.8174 15.08838323  1300","INCLINATION":"53.2174","PERIOD":"95.438","MEAN_ANOMALY":"213.8174","MEAN_MOTION":"15.08838323","RCS_SIZE":"LARGE","BSTAR":"-0.00020703000000","OBJECT_NAME":"STARLINK-4130","EPOCH":"2022-10-13T22:00:00.999936","ELEMENT_SET_NO":"999","ECCENTRICITY":"0.00017570","GP_ID":"215030232","REF_FRAME":"TEME"},{"EPOCH":"2022-10-13T22:00:00.999936","OBJECT_NAME":"STARLINK-3950","BSTAR":"-0.00015330000000","RCS_SIZE":"LARGE","MEAN_MOTION":"15.08838008","REF_FRAME":"TEME","GP_ID":"215029812","ELEMENT_SET_NO":"999","ECCENTRICITY":"0.00017670","TLE_LINE1":"1 53264U 22086Y   22286.91667824 -.00002727  00000-0 -15330-3 0  9996","OBJECT_TYPE":"PAYLOAD","MEAN_ANOMALY":"185.3207","PERIOD":"95.438","INCLINATION":"53.2174","TLE_LINE2":"2 53264  53.2174  13.1387 0001767  32.6421 185.3207 15.08838008  1307","OBJECT_ID":"2022-086Y","EPHEMERIS_TYPE":"0","REV_AT_EPOCH":"130","FILE":"3609636","PERIAPSIS":"538.529","SEMIMAJOR_AXIS":"6917.886","SITE":"AFETR","MEAN_MOTION_DDOT":"0.0000000000000","CLASSIFICATION_TYPE":"U","DECAY_DATE":null,"ARG_OF_PERICENTER":"32.6421","COUNTRY_CODE":"US","NORAD_CAT_ID":"53264","TIME_SYSTEM":"UTC","MEAN_MOTION_DOT":"-0.00002727","MEAN_ELEMENT_THEORY":"SGP4","RA_OF_ASC_NODE":"13.1387","CENTER_NAME":"EARTH","LAUNCH_DATE":"2022-07-24","APOAPSIS":"540.974"}];
